STARLINK-36589          
1 67843U 26033Y   26065.07999004  .00137205  00000+0  64275-3 0  9993
2 67843  42.9973 293.4228 0002134 272.4475  87.6152 15.82051336  4057
STARLINK-36598          
1 67844U 26033Z   26065.07923862  .00229257  00000+0  10589-2 0  9990
2 67844  42.9979 293.4163 0002155 263.6821  96.3805 15.82092562  4050
STARLINK-36606          
1 67845U 26033AA  26065.07848790  .00167216  00000+0  77908-3 0  9992
2 67845  42.9976 293.4095 0002307 262.8414  97.2195 15.82078392  4057
STARLINK-36658          
1 67846U 26033AB  26065.07773816  .00305156  00000+0  13941-2 0  9992
2 67846  42.9970 293.4032 0002553 250.3972 109.6624 15.82125133  4058
STARLINK-36618          
1 67847U 26033AC  26065.25002315 -.00043346  89008-5 -12084-3 0  9993
2 67847  42.9843 290.4245 0001605 288.4130  11.3165 15.91559147  4118
STARLINK-36660          
1 67848U 26033AD  26065.07699071  .00312392  00000+0  14265-2 0  9994
2 67848  42.9971 293.3974 0002484 263.7998  96.2591 15.82116082  4051
STARLINK-36602          
1 67849U 26033AE  26065.07623988  .00203547  00000+0  94346-3 0  9999
2 67849  42.9975 293.3904 0002629 248.1053 111.9539 15.82086036  4051
STARLINK-36840          
1 67850U 26034A   26065.25455688  .00308735  00000+0  15047-2 0  9997
2 67850  53.1595 228.5733 0000508  52.6217 307.4852 15.80984551  3392
STARLINK-36348          
1 67851U 26034B   26065.25380670  .00320312  00000+0  15590-2 0  9994
2 67851  53.1593 228.5673 0000374  44.4729 315.6323 15.80981955  3391
STARLINK-36276          
1 67852U 26034C   26065.25304998  .00499008  00000+0  23658-2 0  9997
2 67852  53.1594 228.5622 0001034 345.1055  14.9937 15.81080430  3393
STARLINK-36785          
1 67853U 26034D   26065.25230809  .00457292  00000+0  21834-2 0  9990
2 67853  53.1593 228.5571 0000494  16.9635 343.1404 15.81035055  3391
STARLINK-36608          
1 67854U 26034E   26065.25155557  .00307908  00000+0  15013-2 0  9997
2 67854  53.1596 228.5522 0000203 147.6068 212.4967 15.80976289  3384
STARLINK-36838          
1 67855U 26034F   26065.25080438  .00342318  00000+0  16611-2 0  9992
2 67855  53.1594 228.5472 0000355 146.3218 213.7827 15.80987968  3394
STARLINK-36843          
1 67856U 26034G   26065.24930708  .00239068  00000+0  11771-2 0  9995
2 67856  53.1596 228.5370 0000621  31.5737 328.5323 15.80954731  3399
STARLINK-36828          
1 67857U 26034H   26065.25005319  .00242402  00000+0  11928-2 0  9998
2 67857  53.1592 228.5422 0000484  41.6806 318.4254 15.80958220  3398
STARLINK-36837          
1 67858U 26034J   26065.05889866  .00288457  00000+0  14096-2 0  9993
2 67858  53.1594 229.4817 0000936  28.8143 331.2932 15.80982380  3369
