[{"OBJECT_NAME":"STARLINK-36589","OBJECT_ID":"2026-033Y","EPOCH":"2026-03-06T01:55:11.139456","MEAN_MOTION":15.82051336,"ECCENTRICITY":0.00021348,"INCLINATION":42.9973,"RA_OF_ASC_NODE":293.4228,"ARG_OF_PERICENTER":272.4475,"MEAN_ANOMALY":87.6152,"EPHEMERIS_TYPE":0,"CLASSIFICATION_TYPE":"U","NORAD_CAT_ID":67843,"ELEMENT_SET_NO":999,"REV_AT_EPOCH":405,"BSTAR":0.00064275291,"MEAN_MOTION_DOT":0.00137205,"MEAN_MOTION_DDOT":0},{"OBJECT_NAME":"STARLINK-36598","OBJECT_ID":"2026-033Z","EPOCH":"2026-03-06T01:54:06.216768","MEAN_MOTION":15.82092562,"ECCENTRICITY":0.00021557,"INCLINATION":42.9979,"RA_OF_ASC_NODE":293.4163,"ARG_OF_PERICENTER":263.6821,"MEAN_ANOMALY":96.3805,"EPHEMERIS_TYPE":0,"CLASSIFICATION_TYPE":"U","NORAD_CAT_ID":67844,"ELEMENT_SET_NO":999,"REV_AT_EPOCH":405,"BSTAR":0.001058877,"MEAN_MOTION_DOT":0.00229257,"MEAN_MOTION_DDOT":0},{"OBJECT_NAME":"STARLINK-36606","OBJECT_ID":"2026-033AA","EPOCH":"2026-03-06T01:53:01.354560","MEAN_MOTION":15.82078392,"ECCENTRICITY":0.00023078,"INCLINATION":42.9976,"RA_OF_ASC_NODE":293.4095,"ARG_OF_PERICENTER":262.8414,"MEAN_ANOMALY":97.2195,"EPHEMERIS_TYPE":0,"CLASSIFICATION_TYPE":"U","NORAD_CAT_ID":67845,"ELEMENT_SET_NO":999,"REV_AT_EPOCH":405,"BSTAR":0.0007790842,"MEAN_MOTION_DOT":0.00167216,"MEAN_MOTION_DDOT":0},{"OBJECT_NAME":"STARLINK-36658","OBJECT_ID":"2026-033AB","EPOCH":"2026-03-06T01:51:56.577024","MEAN_MOTION":15.82125133,"ECCENTRICITY":0.00025533,"INCLINATION":42.997,"RA_OF_ASC_NODE":293.4032,"ARG_OF_PERICENTER":250.3972,"MEAN_ANOMALY":109.6624,"EPHEMERIS_TYPE":0,"CLASSIFICATION_TYPE":"U","NORAD_CAT_ID":67846,"ELEMENT_SET_NO":999,"REV_AT_EPOCH":405,"BSTAR":0.0013940707,"MEAN_MOTION_DOT":0.00305156,"MEAN_MOTION_DDOT":0},{"OBJECT_NAME":"STARLINK-36618","OBJECT_ID":"2026-033AC","EPOCH":"2026-03-06T06:00:02.000160","MEAN_MOTION":15.91559147,"ECCENTRICITY":0.00016052,"INCLINATION":42.9843,"RA_OF_ASC_NODE":290.4245,"ARG_OF_PERICENTER":288.413,"MEAN_ANOMALY":11.3165,"EPHEMERIS_TYPE":0,"CLASSIFICATION_TYPE":"U","NORAD_CAT_ID":67847,"ELEMENT_SET_NO":999,"REV_AT_EPOCH":411,"BSTAR":-0.00012084399,"MEAN_MOTION_DOT":-0.00043346,"MEAN_MOTION_DDOT":8.900815e-6},{"OBJECT_NAME":"STARLINK-36660","OBJECT_ID":"2026-033AD","EPOCH":"2026-03-06T01:50:51.997344","MEAN_MOTION":15.82116082,"ECCENTRICITY":0.00024844,"INCLINATION":42.9971,"RA_OF_ASC_NODE":293.3974,"ARG_OF_PERICENTER":263.7998,"MEAN_ANOMALY":96.2591,"EPHEMERIS_TYPE":0,"CLASSIFICATION_TYPE":"U","NORAD_CAT_ID":67848,"ELEMENT_SET_NO":999,"REV_AT_EPOCH":405,"BSTAR":0.0014264773,"MEAN_MOTION_DOT":0.00312392,"MEAN_MOTION_DDOT":0},{"OBJECT_NAME":"STARLINK-36602","OBJECT_ID":"2026-033AE","EPOCH":"2026-03-06T01:49:47.125632","MEAN_MOTION":15.82086036,"ECCENTRICITY":0.00026298,"INCLINATION":42.9975,"RA_OF_ASC_NODE":293.3904,"ARG_OF_PERICENTER":248.1053,"MEAN_ANOMALY":111.9539,"EPHEMERIS_TYPE":0,"CLASSIFICATION_TYPE":"U","NORAD_CAT_ID":67849,"ELEMENT_SET_NO":999,"REV_AT_EPOCH":405,"BSTAR":0.00094346081,"MEAN_MOTION_DOT":0.00203547,"MEAN_MOTION_DDOT":0},{"OBJECT_NAME":"STARLINK-36840","OBJECT_ID":"2026-034A","EPOCH":"2026-03-06T06:06:33.714432","MEAN_MOTION":15.80984551,"ECCENTRICITY":5.083e-5,"INCLINATION":53.1595,"RA_OF_ASC_NODE":228.5733,"ARG_OF_PERICENTER":52.6217,"MEAN_ANOMALY":307.4852,"EPHEMERIS_TYPE":0,"CLASSIFICATION_TYPE":"U","NORAD_CAT_ID":67850,"ELEMENT_SET_NO":999,"REV_AT_EPOCH":339,"BSTAR":0.0015046723,"MEAN_MOTION_DOT":0.00308735,"MEAN_MOTION_DDOT":0},{"OBJECT_NAME":"STARLINK-36348","OBJECT_ID":"2026-034B","EPOCH":"2026-03-06T06:05:28.898880","MEAN_MOTION":15.80981955,"ECCENTRICITY":3.743e-5,"INCLINATION":53.1593,"RA_OF_ASC_NODE":228.5673,"ARG_OF_PERICENTER":44.4729,"MEAN_ANOMALY":315.6323,"EPHEMERIS_TYPE":0,"CLASSIFICATION_TYPE":"U","NORAD_CAT_ID":67851,"ELEMENT_SET_NO":999,"REV_AT_EPOCH":339,"BSTAR":0.0015590152,"MEAN_MOTION_DOT":0.00320312,"MEAN_MOTION_DDOT":0},{"OBJECT_NAME":"STARLINK-36276","OBJECT_ID":"2026-034C","EPOCH":"2026-03-06T06:04:23.518272","MEAN_MOTION":15.8108043,"ECCENTRICITY":0.00010349,"INCLINATION":53.1594,"RA_OF_ASC_NODE":228.5622,"ARG_OF_PERICENTER":345.1055,"MEAN_ANOMALY":14.9937,"EPHEMERIS_TYPE":0,"CLASSIFICATION_TYPE":"U","NORAD_CAT_ID":67852,"ELEMENT_SET_NO":999,"REV_AT_EPOCH":339,"BSTAR":0.0023657959,"MEAN_MOTION_DOT":0.00499008,"MEAN_MOTION_DDOT":0},{"OBJECT_NAME":"STARLINK-36785","OBJECT_ID":"2026-034D","EPOCH":"2026-03-06T06:03:19.418976","MEAN_MOTION":15.81035055,"ECCENTRICITY":4.941e-5,"INCLINATION":53.1593,"RA_OF_ASC_NODE":228.5571,"ARG_OF_PERICENTER":16.9635,"MEAN_ANOMALY":343.1404,"EPHEMERIS_TYPE":0,"CLASSIFICATION_TYPE":"U","NORAD_CAT_ID":67853,"ELEMENT_SET_NO":999,"REV_AT_EPOCH":339,"BSTAR":0.0021833844,"MEAN_MOTION_DOT":0.00457292,"MEAN_MOTION_DDOT":0},{"OBJECT_NAME":"STARLINK-36608","OBJECT_ID":"2026-034E","EPOCH":"2026-03-06T06:02:14.401248","MEAN_MOTION":15.80976289,"ECCENTRICITY":2.035e-5,"INCLINATION":53.1596,"RA_OF_ASC_NODE":228.5522,"ARG_OF_PERICENTER":147.6068,"MEAN_ANOMALY":212.4967,"EPHEMERIS_TYPE":0,"CLASSIFICATION_TYPE":"U","NORAD_CAT_ID":67854,"ELEMENT_SET_NO":999,"REV_AT_EPOCH":338,"BSTAR":0.0015013213,"MEAN_MOTION_DOT":0.00307908,"MEAN_MOTION_DDOT":0},{"OBJECT_NAME":"STARLINK-36838","OBJECT_ID":"2026-034F","EPOCH":"2026-03-06T06:01:09.498432","MEAN_MOTION":15.80987968,"ECCENTRICITY":3.551e-5,"INCLINATION":53.1594,"RA_OF_ASC_NODE":228.5472,"ARG_OF_PERICENTER":146.3218,"MEAN_ANOMALY":213.7827,"EPHEMERIS_TYPE":0,"CLASSIFICATION_TYPE":"U","NORAD_CAT_ID":67855,"ELEMENT_SET_NO":999,"REV_AT_EPOCH":339,"BSTAR":0.0016611228,"MEAN_MOTION_DOT":0.00342318,"MEAN_MOTION_DDOT":0},{"OBJECT_NAME":"STARLINK-36843","OBJECT_ID":"2026-034G","EPOCH":"2026-03-06T05:59:00.131712","MEAN_MOTION":15.80954731,"ECCENTRICITY":6.211e-5,"INCLINATION":53.1596,"RA_OF_ASC_NODE":228.537,"ARG_OF_PERICENTER":31.5737,"MEAN_ANOMALY":328.5323,"EPHEMERIS_TYPE":0,"CLASSIFICATION_TYPE":"U","NORAD_CAT_ID":67856,"ELEMENT_SET_NO":999,"REV_AT_EPOCH":339,"BSTAR":0.0011770862,"MEAN_MOTION_DOT":0.00239068,"MEAN_MOTION_DDOT":0},{"OBJECT_NAME":"STARLINK-36828","OBJECT_ID":"2026-034H","EPOCH":"2026-03-06T06:00:04.595616","MEAN_MOTION":15.8095822,"ECCENTRICITY":4.841e-5,"INCLINATION":53.1592,"RA_OF_ASC_NODE":228.5422,"ARG_OF_PERICENTER":41.6806,"MEAN_ANOMALY":318.4254,"EPHEMERIS_TYPE":0,"CLASSIFICATION_TYPE":"U","NORAD_CAT_ID":67857,"ELEMENT_SET_NO":999,"REV_AT_EPOCH":339,"BSTAR":0.0011927857,"MEAN_MOTION_DOT":0.00242402,"MEAN_MOTION_DDOT":0},{"OBJECT_NAME":"STARLINK-36837","OBJECT_ID":"2026-034J","EPOCH":"2026-03-06T01:24:48.844224","MEAN_MOTION":15.8098238,"ECCENTRICITY":9.365e-5,"INCLINATION":53.1594,"RA_OF_ASC_NODE":229.4817,"ARG_OF_PERICENTER":28.8143,"MEAN_ANOMALY":331.2932,"EPHEMERIS_TYPE":0,"CLASSIFICATION_TYPE":"U","NORAD_CAT_ID":67858,"ELEMENT_SET_NO":999,"REV_AT_EPOCH":336,"BSTAR":0.0014095932,"MEAN_MOTION_DOT":0.00288457,"MEAN_MOTION_DDOT":0}]
